CTC2_L_00101016-03
1 48902U 26948GI  26037.47791667  .00000000  00000+0  00000-0 0  9996
2 48902  70.0000 180.0000 0000000   0.0000   0.0000 14.60983372    15
CTC2_L_00101016-04
1 48903U 26245MA  26037.47791667  .00000000  00000+0  00000-0 0  9997
2 48903  70.0000 180.0000 0000000   0.0000  90.0000 14.60983372    15
CTC2_L_00101017-01
1 48904U 25374UY  26037.47791667  .00000000  00000+0  00000-0 0  9990
2 48904  70.0000 192.0000 0000000   0.0000 192.0000 14.60983372    12
CTC2_L_00101017-02
1 48905U 25353RA  26037.47791667  .00000000  00000+0  00000-0 0  9998
2 48905  70.0000 192.0000 0000000   0.0000 282.0000 14.60983372    13
CTC2_L_00101017-03
1 48906U 23521GR  26037.47791667  .00000000  00000+0  00000-0 0  9994
2 48906  70.0000 192.0000 0000000   0.0000  12.0000 14.60983372    15
CTC2_L_00101017-04
1 48907U 24093QJ  26037.47791667  .00000000  00000+0  00000-0 0  9990
2 48907  70.0000 192.0000 0000000   0.0000 102.0000 14.60983372    16
CTC2_L_00101018-01
1 48908U 25754LQ  26037.47791667  .00000000  00000+0  00000-0 0  9996
2 48908  70.0000 204.0000 0000000   0.0000 204.0000 14.60983372    14
CTC2_L_00101018-02
1 48909U 24667GN  26037.47791667  .00000000  00000+0  00000-0 0  9999
2 48909  70.0000 204.0000 0000000   0.0000 294.0000 14.60983372    14
CTC2_L_00101018-03
1 48910U 23657LS  26037.47791667  .00000000  00000+0  00000-0 0  9999
2 48910  70.0000 204.0000 0000000   0.0000  24.0000 14.60983372    17
CTC2_L_00101018-04
1 48911U 25475UG  26037.47791667  .00000000  00000+0  00000-0 0  9990
2 48911  70.0000 204.0000 0000000   0.0000 114.0000 14.60983372    18
CTC2_L_00101019-01
1 48912U 24317XX  26037.47791667  .00000000  00000+0  00000-0 0  9995
2 48912  70.0000 216.0000 0000000   0.0000 216.0000 14.60983372    15
CTC2_L_00101019-02
1 48913U 25377KQ  26037.47791667  .00000000  00000+0  00000-0 0  9993
2 48913  70.0000 216.0000 0000000   0.0000 306.0000 14.60983372    16
CTC2_L_00101019-03
1 48914U 23502RT  26037.47791667  .00000000  00000+0  00000-0 0  9992
2 48914  70.0000 216.0000 0000000   0.0000  36.0000 14.60983372    17
CTC2_L_00101019-04
1 48915U 22115B   26037.47791667  .00000000  00000+0  00000-0 0  9992
2 48915  70.0000 216.0000 0000000   0.0000 126.0000 14.60983372    18
CTC2_L_00101020-01
1 48916U 22147SO  26037.47791667  .00000000  00000+0  00000-0 0  9998
2 48916  70.0000 228.0000 0000000   0.0000 228.0000 14.60983372    15
CTC2_L_00101020-02
1 48917U 25253RB  26037.47791667  .00000000  00000+0  00000-0 0  9990
2 48917  70.0000 228.0000 0000000   0.0000 318.0000 14.60983372    16
CTC2_L_00101020-03
1 48918U 22188ZQ  26037.47791667  .00000000  00000+0  00000-0 0  9995
2 48918  70.0000 228.0000 0000000   0.0000  48.0000 14.60983372    17
CTC2_L_00101020-04
1 48919U 24612RV  26037.47791667  .00000000  00000+0  00000-0 0  9990
2 48919  70.0000 228.0000 0000000   0.0000 138.0000 14.60983372    18
CTC2_L_00101021-01
1 48920U 24702IE  26037.47791667  .00000000  00000+0  00000-0 0  9992
2 48920  70.0000 240.0000 0000000   0.0000 240.0000 14.60983372    18
CTC2_L_00101021-02
1 48921U 23354ZU  26037.47791667  .00000000  00000+0  00000-0 0  9995
2 48921  70.0000 240.0000 0000000   0.0000 330.0000 14.60983372    19
CTC2_L_00101021-03
1 48922U 25364ER  26037.47791667  .00000000  00000+0  00000-0 0  9999
2 48922  70.0000 240.0000 0000000   0.0000  60.0000 14.60983372    10
CTC2_L_00101021-04
1 48923U 26303MG  26037.47791667  .00000000  00000+0  00000-0 0  9994
2 48923  70.0000 240.0000 0000000   0.0000 150.0000 14.60983372    11
CTC2_L_00101022-01
1 48924U 26287YH  26037.47791667  .00000000  00000+0  00000-0 0  9996
2 48924  70.0000 252.0000 0000000   0.0000 252.0000 14.60983372    18
CTC2_L_00101022-02
1 48925U 23963OZ  26037.47791667  .00000000  00000+0  00000-0 0  9995
2 48925  70.0000 252.0000 0000000   0.0000 342.0000 14.60983372    19
CTC2_L_00101022-03
1 48926U 24179UM  26037.47791667  .00000000  00000+0  00000-0 0  9996
2 48926  70.0000 252.0000 0000000   0.0000  72.0000 14.60983372    10
CTC2_L_00101022-04
1 48927U 24974AC  26037.47791667  .00000000  00000+0  00000-0 0  9990
2 48927  70.0000 252.0000 0000000   0.0000 162.0000 14.60983372    11
CTC2_L_00101023-01
1 48928U 22718TF  26037.47791667  .00000000  00000+0  00000-0 0  9995
2 48928  70.0000 264.0000 0000000   0.0000 264.0000 14.60983372    18
CTC2_L_00101023-02
1 48929U 24621LP  26037.47791667  .00000000  00000+0  00000-0 0  9991
2 48929  70.0000 264.0000 0000000   0.0000 354.0000 14.60983372    19
CTC2_L_00101023-03
1 48930U 26976A   26037.47791667  .00000000  00000+0  00000-0 0  9998
2 48930  70.0000 264.0000 0000000   0.0000  84.0000 14.60983372    11
CTC2_L_00101023-04
1 48931U 26895SS  26037.47791667  .00000000  00000+0  00000-0 0  9999
2 48931  70.0000 264.0000 0000000   0.0000 174.0000 14.60983372    12
CTC2_L_00101024-01
1 48932U 25253TY  26037.47791667  .00000000  00000+0  00000-0 0  9997
2 48932  70.0000 276.0000 0000000   0.0000 276.0000 14.60983372    19
CTC2_L_00101024-02
1 48933U 24618NY  26037.47791667  .00000000  00000+0  00000-0 0  9992
2 48933  70.0000 276.0000 0000000   0.0000   6.0000 14.60983372    11
CTC2_L_00101024-03
1 48934U 24460XR  26037.47791667  .00000000  00000+0  00000-0 0  9998
2 48934  70.0000 276.0000 0000000   0.0000  96.0000 14.60983372    11
CTC2_L_00101024-04
1 48935U 25826AD  26037.47791667  .00000000  00000+0  00000-0 0  9996
2 48935  70.0000 276.0000 0000000   0.0000 186.0000 14.60983372    12
CTC2_L_00101025-01
1 48936U 23895GD  26037.47791667  .00000000  00000+0  00000-0 0  9991
2 48936  70.0000 288.0000 0000000   0.0000 288.0000 14.60983372    19
CTC2_L_00101025-02
1 48937U 23423IV  26037.47791667  .00000000  00000+0  00000-0 0  9999
2 48937  70.0000 288.0000 0000000   0.0000  18.0000 14.60983372    11
CTC2_L_00101025-03
1 48938U 25261AF  26037.47791667  .00000000  00000+0  00000-0 0  9992
2 48938  70.0000 288.0000 0000000   0.0000 108.0000 14.60983372    12
CTC2_L_00101025-04
1 48939U 25158YI  26037.47791667  .00000000  00000+0  00000-0 0  9998
2 48939  70.0000 288.0000 0000000   0.0000 198.0000 14.60983372    12
CTC2_L_00101026-01
1 48940U 25564MD  26037.47791667  .00000000  00000+0  00000-0 0  9991
2 48940  70.0000 300.0000 0000000   0.0000 300.0000 14.60983372    14
CTC2_L_00101026-02
1 48941U 24713PJ  26037.47791667  .00000000  00000+0  00000-0 0  9997
2 48941  70.0000 300.0000 0000000   0.0000  30.0000 14.60983372    15
CTC2_L_00101026-03
1 48942U 23459YN  26037.47791667  .00000000  00000+0  00000-0 0  9994
2 48942  70.0000 300.0000 0000000   0.0000 120.0000 14.60983372    16
CTC2_L_00101026-04
1 48943U 23272IT  26037.47791667  .00000000  00000+0  00000-0 0  9998
2 48943  70.0000 300.0000 0000000   0.0000 210.0000 14.60983372    17
CTC2_L_00101027-01
1 48944U 23174XH  26037.47791667  .00000000  00000+0  00000-0 0  9990
2 48944  70.0000 312.0000 0000000   0.0000 312.0000 14.60983372    14
CTC2_L_00101027-02
1 48945U 24891LZ  26037.47791667  .00000000  00000+0  00000-0 0  9998
2 48945  70.0000 312.0000 0000000   0.0000  42.0000 14.60983372    15
CTC2_L_00101027-03
1 48946U 26390I   26037.47791667  .00000000  00000+0  00000-0 0  9995
2 48946  70.0000 312.0000 0000000   0.0000 132.0000 14.60983372    16
CTC2_L_00101027-04
1 48947U 25984DP  26037.47791667  .00000000  00000+0  00000-0 0  9994
2 48947  70.0000 312.0000 0000000   0.0000 222.0000 14.60983372    17
CTC2_L_00101028-01
1 48948U 25496OW  26037.47791667  .00000000  00000+0  00000-0 0  9993
2 48948  70.0000 324.0000 0000000   0.0000 324.0000 14.60983372    14
CTC2_L_00101028-02
1 48949U 24555EL  26037.47791667  .00000000  00000+0  00000-0 0  9999
2 48949  70.0000 324.0000 0000000   0.0000  54.0000 14.60983372    15
CTC2_L_00101028-03
1 48950U 26220KM  26037.47791667  .00000000  00000+0  00000-0 0  9992
2 48950  70.0000 324.0000 0000000   0.0000 144.0000 14.60983372    17
CTC2_L_00101028-04
1 48951U 23277GN  26037.47791667  .00000000  00000+0  00000-0 0  9992
2 48951  70.0000 324.0000 0000000   0.0000 234.0000 14.60983372    18
CTC2_L_00101029-01
1 48952U 25260PH  26037.47791667  .00000000  00000+0  00000-0 0  9997
2 48952  70.0000 336.0000 0000000   0.0000 336.0000 14.60983372    15
CTC2_L_00101029-02
1 48953U 24830JC  26037.47791667  .00000000  00000+0  00000-0 0  9990
2 48953  70.0000 336.0000 0000000   0.0000  66.0000 14.60983372    16
CTC2_L_00101029-03
1 48954U 24402KF  26037.47791667  .00000000  00000+0  00000-0 0  9996
2 48954  70.0000 336.0000 0000000   0.0000 156.0000 14.60983372    17
CTC2_L_00101029-04
1 48955U 26462RJ  26037.47791667  .00000000  00000+0  00000-0 0  9995
2 48955  70.0000 336.0000 0000000   0.0000 246.0000 14.60983372    18
CTC2_L_00101030-01
1 48956U 25885TA  26037.47791667  .00000000  00000+0  00000-0 0  9994
2 48956  70.0000 348.0000 0000000   0.0000 348.0000 14.60983372    15
CTC2_L_00101030-02
1 48957U 24825HV  26037.47791667  .00000000  00000+0  00000-0 0  9998
2 48957  70.0000 348.0000 0000000   0.0000  78.0000 14.60983372    16
CTC2_L_00101030-03
1 48958U 24606WB  26037.47791667  .00000000  00000+0  00000-0 0  9996
2 48958  70.0000 348.0000 0000000   0.0000 168.0000 14.60983372    17
CTC2_L_00101030-04
1 48959U 22992MQ  26037.47791667  .00000000  00000+0  00000-0 0  9993
2 48959  70.0000 348.0000 0000000   0.0000 258.0000 14.60983372    18
